[{"OBJECT_NAME":"KUIPER-00028","OBJECT_ID":"2025-088T","EPOCH":"2026-03-07T03:08:10.203360","MEAN_MOTION":14.79926001,"ECCENTRICITY":7.58e-5,"INCLINATION":51.8984,"RA_OF_ASC_NODE":104.3687,"ARG_OF_PERICENTER":51.2089,"MEAN_ANOMALY":308.8941,"EPHEMERIS_TYPE":0,"CLASSIFICATION_TYPE":"U","NORAD_CAT_ID":63741,"ELEMENT_SET_NO":999,"REV_AT_EPOCH":4768,"BSTAR":0.00044861,"MEAN_MOTION_DOT":3.2e-5,"MEAN_MOTION_DDOT":0},{"OBJECT_NAME":"KUIPER-00029","OBJECT_ID":"2025-088U","EPOCH":"2026-03-06T20:50:50.921088","MEAN_MOTION":14.83146545,"ECCENTRICITY":6.59e-5,"INCLINATION":51.8999,"RA_OF_ASC_NODE":103.1287,"ARG_OF_PERICENTER":127.602,"MEAN_ANOMALY":232.5003,"EPHEMERIS_TYPE":0,"CLASSIFICATION_TYPE":"U","NORAD_CAT_ID":63742,"ELEMENT_SET_NO":999,"REV_AT_EPOCH":4720,"BSTAR":-0.014083,"MEAN_MOTION_DOT":-0.00114249,"MEAN_MOTION_DDOT":0},{"OBJECT_NAME":"KUIPER-00030","OBJECT_ID":"2025-088V","EPOCH":"2026-03-07T03:29:42.069984","MEAN_MOTION":14.79943666,"ECCENTRICITY":0.0010826,"INCLINATION":51.8998,"RA_OF_ASC_NODE":121.7954,"ARG_OF_PERICENTER":63.0196,"MEAN_ANOMALY":297.187,"EPHEMERIS_TYPE":0,"CLASSIFICATION_TYPE":"U","NORAD_CAT_ID":63743,"ELEMENT_SET_NO":999,"REV_AT_EPOCH":4725,"BSTAR":0.00059425,"MEAN_MOTION_DOT":4.314e-5,"MEAN_MOTION_DDOT":0},{"OBJECT_NAME":"KUIPER-00031","OBJECT_ID":"2025-088W","EPOCH":"2026-03-07T01:51:38.657664","MEAN_MOTION":14.83637019,"ECCENTRICITY":0.0001908,"INCLINATION":51.9004,"RA_OF_ASC_NODE":107.3096,"ARG_OF_PERICENTER":137.4417,"MEAN_ANOMALY":222.6695,"EPHEMERIS_TYPE":0,"CLASSIFICATION_TYPE":"U","NORAD_CAT_ID":63744,"ELEMENT_SET_NO":999,"REV_AT_EPOCH":4716,"BSTAR":0.00064916,"MEAN_MOTION_DOT":5.184e-5,"MEAN_MOTION_DDOT":0},{"OBJECT_NAME":"KUIPER-00032","OBJECT_ID":"2025-088X","EPOCH":"2026-03-07T03:11:32.384544","MEAN_MOTION":15.37217041,"ECCENTRICITY":0.0005344,"INCLINATION":51.8705,"RA_OF_ASC_NODE":36.5862,"ARG_OF_PERICENTER":103.9427,"MEAN_ANOMALY":256.2154,"EPHEMERIS_TYPE":0,"CLASSIFICATION_TYPE":"U","NORAD_CAT_ID":63745,"ELEMENT_SET_NO":999,"REV_AT_EPOCH":4915,"BSTAR":0.00054423,"MEAN_MOTION_DOT":0.00019815,"MEAN_MOTION_DDOT":0},{"OBJECT_NAME":"KUIPER-00033","OBJECT_ID":"2025-088Y","EPOCH":"2026-03-06T09:18:44.566848","MEAN_MOTION":14.8343013,"ECCENTRICITY":8.228e-5,"INCLINATION":51.9002,"RA_OF_ASC_NODE":140.5379,"ARG_OF_PERICENTER":42.9589,"MEAN_ANOMALY":317.1439,"EPHEMERIS_TYPE":0,"CLASSIFICATION_TYPE":"U","NORAD_CAT_ID":63746,"ELEMENT_SET_NO":999,"REV_AT_EPOCH":4712,"BSTAR":0.0008260957,"MEAN_MOTION_DOT":6.627e-5,"MEAN_MOTION_DDOT":0},{"OBJECT_NAME":"KUIPER-00034","OBJECT_ID":"2025-088Z","EPOCH":"2026-03-07T02:01:17.105664","MEAN_MOTION":14.83520706,"ECCENTRICITY":0.0001794,"INCLINATION":51.9003,"RA_OF_ASC_NODE":99.7792,"ARG_OF_PERICENTER":344.0856,"MEAN_ANOMALY":16.0052,"EPHEMERIS_TYPE":0,"CLASSIFICATION_TYPE":"U","NORAD_CAT_ID":63747,"ELEMENT_SET_NO":999,"REV_AT_EPOCH":4743,"BSTAR":0.00062023,"MEAN_MOTION_DOT":4.929e-5,"MEAN_MOTION_DDOT":0},{"OBJECT_NAME":"KUIPER-00035","OBJECT_ID":"2025-088AA","EPOCH":"2026-03-07T04:33:46.704096","MEAN_MOTION":14.83277386,"ECCENTRICITY":0.0004016,"INCLINATION":51.8999,"RA_OF_ASC_NODE":124.9784,"ARG_OF_PERICENTER":66.9833,"MEAN_ANOMALY":293.1554,"EPHEMERIS_TYPE":0,"CLASSIFICATION_TYPE":"U","NORAD_CAT_ID":63748,"ELEMENT_SET_NO":999,"REV_AT_EPOCH":4714,"BSTAR":0.00084576,"MEAN_MOTION_DOT":6.765e-5,"MEAN_MOTION_DDOT":0},{"OBJECT_NAME":"KUIPER-00037","OBJECT_ID":"2025-088AB","EPOCH":"2026-03-07T03:25:46.703424","MEAN_MOTION":14.79966798,"ECCENTRICITY":8.55e-5,"INCLINATION":51.8988,"RA_OF_ASC_NODE":124.3218,"ARG_OF_PERICENTER":61.7791,"MEAN_ANOMALY":298.3257,"EPHEMERIS_TYPE":0,"CLASSIFICATION_TYPE":"U","NORAD_CAT_ID":63749,"ELEMENT_SET_NO":999,"REV_AT_EPOCH":4793,"BSTAR":0.00075601,"MEAN_MOTION_DOT":5.551e-5,"MEAN_MOTION_DDOT":0},{"OBJECT_NAME":"KUIPER-00038","OBJECT_ID":"2025-088AC","EPOCH":"2026-03-06T13:13:53.000832","MEAN_MOTION":14.79957975,"ECCENTRICITY":8.862e-5,"INCLINATION":51.9044,"RA_OF_ASC_NODE":111.9759,"ARG_OF_PERICENTER":29.5105,"MEAN_ANOMALY":330.5907,"EPHEMERIS_TYPE":0,"CLASSIFICATION_TYPE":"U","NORAD_CAT_ID":63750,"ELEMENT_SET_NO":999,"REV_AT_EPOCH":4705,"BSTAR":0.00043859474,"MEAN_MOTION_DOT":3.126e-5,"MEAN_MOTION_DDOT":0},{"OBJECT_NAME":"KUIPER-00039","OBJECT_ID":"2025-134A","EPOCH":"2026-03-06T20:40:47.959680","MEAN_MOTION":14.79946325,"ECCENTRICITY":0.0001078,"INCLINATION":51.8998,"RA_OF_ASC_NODE":245.5975,"ARG_OF_PERICENTER":68.5085,"MEAN_ANOMALY":291.5992,"EPHEMERIS_TYPE":0,"CLASSIFICATION_TYPE":"U","NORAD_CAT_ID":64500,"ELEMENT_SET_NO":999,"REV_AT_EPOCH":3965,"BSTAR":0.00060317,"MEAN_MOTION_DOT":4.381e-5,"MEAN_MOTION_DDOT":0},{"OBJECT_NAME":"KUIPER-00040","OBJECT_ID":"2025-134B","EPOCH":"2026-03-06T12:16:23.187072","MEAN_MOTION":14.79997679,"ECCENTRICITY":0.00130246,"INCLINATION":51.8994,"RA_OF_ASC_NODE":258.288,"ARG_OF_PERICENTER":256.5462,"MEAN_ANOMALY":103.4049,"EPHEMERIS_TYPE":0,"CLASSIFICATION_TYPE":"U","NORAD_CAT_ID":64501,"ELEMENT_SET_NO":999,"REV_AT_EPOCH":3944,"BSTAR":0.00064628271,"MEAN_MOTION_DOT":4.72e-5,"MEAN_MOTION_DDOT":0},{"OBJECT_NAME":"KUIPER-00041","OBJECT_ID":"2025-134C","EPOCH":"2026-03-06T05:56:13.839360","MEAN_MOTION":14.78717324,"ECCENTRICITY":0.00072132,"INCLINATION":51.8984,"RA_OF_ASC_NODE":260.8785,"ARG_OF_PERICENTER":254.0812,"MEAN_ANOMALY":105.9356,"EPHEMERIS_TYPE":0,"CLASSIFICATION_TYPE":"U","NORAD_CAT_ID":64502,"ELEMENT_SET_NO":999,"REV_AT_EPOCH":3938,"BSTAR":0.00062516473,"MEAN_MOTION_DOT":4.415e-5,"MEAN_MOTION_DDOT":0},{"OBJECT_NAME":"KUIPER-00042","OBJECT_ID":"2025-134D","EPOCH":"2026-03-06T12:20:19.739904","MEAN_MOTION":14.79965457,"ECCENTRICITY":0.00071003,"INCLINATION":51.8972,"RA_OF_ASC_NODE":255.6339,"ARG_OF_PERICENTER":270.8636,"MEAN_ANOMALY":89.1513,"EPHEMERIS_TYPE":0,"CLASSIFICATION_TYPE":"U","NORAD_CAT_ID":64503,"ELEMENT_SET_NO":999,"REV_AT_EPOCH":3948,"BSTAR":0.00063794603,"MEAN_MOTION_DOT":4.65e-5,"MEAN_MOTION_DDOT":0},{"OBJECT_NAME":"KUIPER-00043","OBJECT_ID":"2025-134E","EPOCH":"2026-03-05T21:23:43.064160","MEAN_MOTION":14.83803217,"ECCENTRICITY":9.947e-5,"INCLINATION":51.9013,"RA_OF_ASC_NODE":249.9165,"ARG_OF_PERICENTER":325.355,"MEAN_ANOMALY":34.7349,"EPHEMERIS_TYPE":0,"CLASSIFICATION_TYPE":"U","NORAD_CAT_ID":64504,"ELEMENT_SET_NO":999,"REV_AT_EPOCH":3951,"BSTAR":0.00058232696,"MEAN_MOTION_DOT":4.646e-5,"MEAN_MOTION_DDOT":0},{"OBJECT_NAME":"KUIPER-00044","OBJECT_ID":"2025-134F","EPOCH":"2026-03-06T13:49:52.059072","MEAN_MOTION":14.79917382,"ECCENTRICITY":0.00080666,"INCLINATION":51.9031,"RA_OF_ASC_NODE":260.3555,"ARG_OF_PERICENTER":266.0478,"MEAN_ANOMALY":93.9562,"EPHEMERIS_TYPE":0,"CLASSIFICATION_TYPE":"U","NORAD_CAT_ID":64505,"ELEMENT_SET_NO":999,"REV_AT_EPOCH":3942,"BSTAR":0.0014475389,"MEAN_MOTION_DOT":0.00010832,"MEAN_MOTION_DDOT":0},{"OBJECT_NAME":"KUIPER-00046","OBJECT_ID":"2025-134G","EPOCH":"2026-03-06T12:18:50.643360","MEAN_MOTION":14.79925191,"ECCENTRICITY":6.192e-5,"INCLINATION":51.8976,"RA_OF_ASC_NODE":257.0983,"ARG_OF_PERICENTER":96.8411,"MEAN_ANOMALY":263.2622,"EPHEMERIS_TYPE":0,"CLASSIFICATION_TYPE":"U","NORAD_CAT_ID":64506,"ELEMENT_SET_NO":999,"REV_AT_EPOCH":3946,"BSTAR":0.00060915669,"MEAN_MOTION_DOT":4.425e-5,"MEAN_MOTION_DDOT":0}]
